$$SOE
2459580.500000000, A.D. 2022-Jan-01 00:00:00.0000, -4.380282775369489E+08, 1.717997474820614E+08, 5.446576071485542E+07,
2459587.500000000, A.D. 2022-Jan-08 00:00:00.0000, -4.418089671527566E+08, 1.624207635495036E+08, 5.561891798637699E+07,
2459594.500000000, A.D. 2022-Jan-15 00:00:00.0000, -4.453883136523979E+08, 1.529677441178035E+08, 5.674672200974749E+07,
2459601.500000000, A.D. 2022-Jan-22 00:00:00.0000, -4.487651154257109E+08, 1.434451462318506E+08, 5.784871357917306E+07,
2459608.500000000, A.D. 2022-Jan-29 00:00:00.0000, -4.519382704928101E+08, 1.338574429656376E+08, 5.892444767600986E+07,
2459615.500000000, A.D. 2022-Feb-05 00:00:00.0000, -4.549067784278270E+08, 1.242091203708051E+08, 5.997349372394709E+07,
2459622.500000000, A.D. 2022-Feb-12 00:00:00.0000, -4.576697400541138E+08, 1.145046733909916E+08, 6.099543554942252E+07,
2459629.500000000, A.D. 2022-Feb-19 00:00:00.0000, -4.602263562340332E+08, 1.047486031116028E+08, 6.198987136188076E+07,
2459636.500000000, A.D. 2022-Feb-26 00:00:00.0000, -4.625759270654123E+08, 9.494541462162827E+07, 6.295641381462267E+07,
2459643.500000000, A.D. 2022-Mar-05 00:00:00.0000, -4.647178513274015E+08, 8.509961487084019E+07, 6.389469008097273E+07,
2459650.500000000, A.D. 2022-Mar-12 00:00:00.0000, -4.666516259561742E+08, 7.521571045707186E+07, 6.480434191990641E+07,
2459657.500000000, A.D. 2022-Mar-19 00:00:00.0000, -4.683768454821308E+08, 6.529820537226516E+07, 6.568502572689663E+07,
2459664.500000000, A.D. 2022-Mar-26 00:00:00.0000, -4.698932014090809E+08, 5.535159870245489E+07, 6.653641256752974E+07,
2459671.500000000, A.D. 2022-Apr-02 00:00:00.0000, -4.712004814701804E+08, 4.538038222720611E+07, 6.735818818322460E+07,
2459678.500000000, A.D. 2022-Apr-09 00:00:00.0000, -4.722985684906969E+08, 3.538903792461741E+07, 6.815005294461915E+07,
2459685.500000000, A.D. 2022-Apr-16 00:00:00.0000, -4.731874385021735E+08, 2.538203603698336E+07, 6.891172177342738E+07,
2459692.500000000, A.D. 2022-Apr-23 00:00:00.0000, -4.738671593784810E+08, 1.536383478189784E+07, 6.964292423787956E+07,
2459699.500000000, A.D. 2022-Apr-30 00:00:00.0000, -4.743378918666086E+08, 5.338879463754803E+06, 7.034340481012900E+07,
2459706.500000000, A.D. 2022-May-07 00:00:00.0000, -4.745998899526687E+08, -4.688400986697242E+06, 7.101292284397189E+07,
2459713.500000000, A.D. 2022-May-14 00:00:00.0000, -4.746534991745451E+08, -1.471359700487273E+07, 7.165125239390987E+07,
2459720.500000000, A.D. 2022-May-21 00:00:00.0000, -4.744991549121685E+08, -2.473232015814221E+07, 7.225818212371750E+07,
2459727.500000000, A.D. 2022-May-28 00:00:00.0000, -4.741373811359153E+08, -3.474020464432433E+07, 7.283351527021100E+07,
2459734.500000000, A.D. 2022-Jun-04 00:00:00.0000, -4.735687893384706E+08, -4.473290883563662E+07, 7.337706961161834E+07,
2459741.500000000, A.D. 2022-Jun-11 00:00:00.0000, -4.727940775073647E+08, -5.470611686543348E+07, 7.388867742781222E+07,
2459748.500000000, A.D. 2022-Jun-18 00:00:00.0000, -4.718140291009125E+08, -6.465554024407917E+07, 7.436818545021893E+07,
2459755.500000000, A.D. 2022-Jun-25 00:00:00.0000, -4.706295119994490E+08, -7.457691953694598E+07, 7.481545479626331E+07,
2459762.500000000, A.D. 2022-Jul-02 00:00:00.0000, -4.692414772991971E+08, -8.446602617017011E+07, 7.523036087098610E+07,
2459769.500000000, A.D. 2022-Jul-09 00:00:00.0000, -4.676509575597929E+08, -9.431866418710440E+07, 7.561279321481872E+07,
2459776.500000000, A.D. 2022-Jul-16 00:00:00.0000, -4.658590645616695E+08, -1.041306708726764E+08, 7.596265539134726E+07,
2459783.500000000, A.D. 2022-Jul-23 00:00:00.0000, -4.638669887726986E+08, -1.138979161684903E+08, 7.627986512334558E+07,
2459790.500000000, A.D. 2022-Jul-30 00:00:00.0000, -4.616760004422026E+08, -1.236163042336438E+08, 7.656435439585942E+07,
2459797.500000000, A.D. 2022-Aug-06 00:00:00.0000, -4.592874487262186E+08, -1.332817765032325E+08, 7.681606925000504E+07,
2459804.500000000, A.D. 2022-Aug-13 00:00:00.0000, -4.567027596679626E+08, -1.428903134894509E+08, 7.703496956849578E+07,
2459811.500000000, A.D. 2022-Aug-20 00:00:00.0000, -4.539234346027932E+08, -1.524379358290669E+08, 7.722102895583503E+07,
2459818.500000000, A.D. 2022-Aug-27 00:00:00.0000, -4.509510489205771E+08, -1.619207053051108E+08, 7.737423464789312E+07,
2459825.500000000, A.D. 2022-Sep-03 00:00:00.0000, -4.477872509393813E+08, -1.713347259543809E+08, 7.749458741964279E+07,
2459832.500000000, A.D. 2022-Sep-10 00:00:00.0000, -4.444337608021337E+08, -1.806761452374829E+08, 7.758210148525758E+07,
2459839.500000000, A.D. 2022-Sep-17 00:00:00.0000, -4.408923693682438E+08, -1.899411552736951E+08, 7.763680438809910E+07,
2459846.500000000, A.D. 2022-Sep-24 00:00:00.0000, -4.371649370410521E+08, -1.991259941921756E+08, 7.765873687115712E+07,
2459853.500000000, A.D. 2022-Oct-01 00:00:00.0000, -4.332533922924603E+08, -2.082269476223782E+08, 7.764795270429370E+07,
2459860.500000000, A.D. 2022-Oct-08 00:00:00.0000, -4.291597294786425E+08, -2.172403498018539E+08, 7.760451847366300E+07,
2459867.500000000, A.D. 2022-Oct-15 00:00:00.0000, -4.248860068792813E+08, -2.261625831021186E+08, 7.752851351658814E+07,
2459874.500000000, A.D. 2022-Oct-22 00:00:00.0000, -4.204343471419768E+08, -2.349900776565656E+08, 7.742003006398493E+07,
2459881.500000000, A.D. 2022-Oct-29 00:00:00.0000, -4.158069376345532E+08, -2.437193136846345E+08, 7.727917314898723E+07,
2459888.500000000, A.D. 2022-Nov-05 00:00:00.0000, -4.110060286064073E+08, -2.523468237714639E+08, 7.710606031299624E+07,
2459895.500000000, A.D. 2022-Nov-12 00:00:00.0000, -4.060339311231153E+08, -2.608691938361944E+08, 7.690082139253254E+07,
2459902.500000000, A.D. 2022-Nov-19 00:00:00.0000, -4.008930154932704E+08, -2.692830637445910E+08, 7.666359837465438E+07,
2459909.500000000, A.D. 2022-Nov-26 00:00:00.0000, -3.955857099263707E+08, -2.775851279655901E+08, 7.639454526463337E+07,
2459916.500000000, A.D. 2022-Dec-03 00:00:00.0000, -3.901144992578110E+08, -2.857721362850961E+08, 7.609382795024270E+07,
2459923.500000000, A.D. 2022-Dec-10 00:00:00.0000, -3.844819236974474E+08, -2.938408945591652E+08, 7.576162406049559E+07,
2459930.500000000, A.D. 2022-Dec-17 00:00:00.0000, -3.786905775782856E+08, -3.017882655318204E+08, 7.539812281480063E+07,
2459937.500000000, A.D. 2022-Dec-24 00:00:00.0000, -3.727431079965092E+08, -3.096111697835107E+08, 7.500352484723505E+07,
2459944.500000000, A.D. 2022-Dec-31 00:00:00.0000, -3.666422129854861E+08, -3.173065867029939E+08, 7.457804198197556E+07,
2459951.500000000, A.D. 2023-Jan-07 00:00:00.0000, -3.603906391010724E+08, -3.248715545205365E+08, 7.412189702729598E+07,
2459958.500000000, A.D. 2023-Jan-14 00:00:00.0000, -3.539911803848574E+08, -3.323031689059158E+08, 7.363532380908018E+07,
2459965.500000000, A.D. 2023-Jan-21 00:00:00.0000, -3.474466793497630E+08, -3.395985833049029E+08, 7.311856724371739E+07,
2459972.500000000, A.D. 2023-Jan-28 00:00:00.0000, -3.407600263207644E+08, -3.467550112114405E+08, 7.257188309832734E+07,
2459979.500000000, A.D. 2023-Feb-04 00:00:00.0000, -3.339341573403241E+08, -3.537697273485592E+08, 7.199553770527911E+07,
2459986.500000000, A.D. 2023-Feb-11 00:00:00.0000, -3.269720524339174E+08, -3.606400679515254E+08, 7.138980777996223E+07,
2459993.500000000, A.D. 2023-Feb-18 00:00:00.0000, -3.198767342984475E+08, -3.673634309764422E+08, 7.075498028030761E+07,
2460000.500000000, A.D. 2023-Feb-25 00:00:00.0000, -3.126512671503066E+08, -3.739372763967013E+08, 7.009135227079754E+07,
2460007.500000000, A.D. 2023-Mar-04 00:00:00.0000, -3.052987556307904E+08, -3.803591265694022E+08, 6.939923078337780E+07,
2460014.500000000, A.D. 2023-Mar-11 00:00:00.0000, -2.978223437404221E+08, -3.866265666720573E+08, 6.867893267306173E+07,
2460021.500000000, A.D. 2023-Mar-18 00:00:00.0000, -2.902252137552938E+08, -3.927372452596340E+08, 6.793078446023580E+07,
2460028.500000000, A.D. 2023-Mar-25 00:00:00.0000, -2.825105849221587E+08, -3.986888749895831E+08, 6.715512213749737E+07,
2460035.500000000, A.D. 2023-Apr-01 00:00:00.0000, -2.746817115077493E+08, -4.044792331218225E+08, 6.635229093453665E+07,
2460042.500000000, A.D. 2023-Apr-08 00:00:00.0000, -2.667418808175523E+08, -4.101061605688398E+08, 6.552264519782415E+07,
2460049.500000000, A.D. 2023-Apr-15 00:00:00.0000, -2.586944135204619E+08, -4.155675606020952E+08, 6.466654850911073E+07,
2460056.500000000, A.D. 2023-Apr-22 00:00:00.0000, -2.505426644696056E+08, -4.208614002676049E+08, 6.378437362748346E+07,
2460063.500000000, A.D. 2023-Apr-29 00:00:00.0000, -2.422900212847095E+08, -4.259857122593606E+08, 6.287650218853490E+07,
2460070.500000000, A.D. 2023-May-06 00:00:00.0000, -2.339399024568825E+08, -4.309385954700338E+08, 6.194332446783483E+07,
2460077.500000000, A.D. 2023-May-13 00:00:00.0000, -2.254957559527116E+08, -4.357182151123008E+08, 6.098523922511724E+07,
2460084.500000000, A.D. 2023-May-20 00:00:00.0000, -2.169610580831612E+08, -4.403228029016127E+08, 6.000265356719919E+07,
2460091.500000000, A.D. 2023-May-27 00:00:00.0000, -2.083393124431625E+08, -4.447506573299375E+08, 5.899598280904663E+07,
2460098.500000000, A.D. 2023-Jun-03 00:00:00.0000, -1.996340488637353E+08, -4.490001440050761E+08, 5.796565032949284E+07,
2460105.500000000, A.D. 2023-Jun-10 00:00:00.0000, -1.908488223526055E+08, -4.530696960701627E+08, 5.691208741810538E+07,
2460112.500000000, A.D. 2023-Jun-17 00:00:00.0000, -1.819872119343408E+08, -4.569578147641864E+08, 5.583573310000230E+07,
2460119.500000000, A.D. 2023-Jun-24 00:00:00.0000, -1.730528190702323E+08, -4.606630700682534E+08, 5.473703391366924E+07,
2460126.500000000, A.D. 2023-Jul-01 00:00:00.0000, -1.640492654049103E+08, -4.641841006092278E+08, 5.361644368599623E+07,
2460133.500000000, A.D. 2023-Jul-08 00:00:00.0000, -1.549801915132593E+08, -4.675196119977120E+08, 5.247442352484223E+07,
2460140.500000000, A.D. 2023-Jul-15 00:00:00.0000, -1.458492579229356E+08, -4.706683764292391E+08, 5.131144191446573E+07,
2460147.500000000, A.D. 2023-Jul-22 00:00:00.0000, -1.366601448894701E+08, -4.736292345839705E+08, 5.012797450609772E+07,
$$EOE